[{"OBJECT_NAME":"STARLINK-34276","OBJECT_ID":"2025-120H","EPOCH":"2026-03-09T09:36:09.634464","MEAN_MOTION":15.30204066,"ECCENTRICITY":0.00012033,"INCLINATION":53.1586,"RA_OF_ASC_NODE":117.9046,"ARG_OF_PERICENTER":90.2666,"MEAN_ANOMALY":269.8472,"EPHEMERIS_TYPE":0,"CLASSIFICATION_TYPE":"U","NORAD_CAT_ID":64263,"ELEMENT_SET_NO":999,"REV_AT_EPOCH":4387,"BSTAR":0.00051970913,"MEAN_MOTION_DOT":0.00015066,"MEAN_MOTION_DDOT":0},{"OBJECT_NAME":"SL-3 R\/B","OBJECT_ID":"1983-003B","EPOCH":"2026-03-09T21:31:00.897888","MEAN_MOTION":15.34640469,"ECCENTRICITY":0.00285789,"INCLINATION":81.155,"RA_OF_ASC_NODE":261.9078,"ARG_OF_PERICENTER":155.4571,"MEAN_ANOMALY":204.8036,"EPHEMERIS_TYPE":0,"CLASSIFICATION_TYPE":"U","NORAD_CAT_ID":13771,"ELEMENT_SET_NO":999,"REV_AT_EPOCH":35642,"BSTAR":0.00033440366,"MEAN_MOTION_DOT":0.00011405,"MEAN_MOTION_DDOT":0}]
